AISSAT 1                
1 36797U 10035C   23336.89835627  .00003512  00000+0  37239-3 0  9993
2 36797  98.2067 186.0335 0009359 227.9076 132.1345 14.89754735725782
TISAT 1                 
1 36799U 10035E   23337.15059908  .00008644  00000+0  72238-3 0  9994
2 36799  98.1106 213.4102 0012169 124.2618 235.9758 14.98715590727719
YAOGAN 10               
1 36834U 10038A   23337.53642677  .00001582  00000+0  20467-3 0  9991
2 36834  97.9597 350.7505 0001279  96.1304  57.5558 14.82294662719869
SHIJIAN-6 04B (SJ-6 04B)
1 37180U 10051B   23337.47657419  .00001760  00000+0  16467-3 0  9997
2 37180  97.8228 321.9899 0011701 158.9974 201.1729 14.95344282717000
FENGYUN 3B              
1 37214U 10059A   23337.56694414  .00000220  00000+0  13885-3 0  9990
2 37214  99.0744 357.7355 0021253 288.9524 182.6188 14.14413304676455
COSMO-SKYMED 4          
1 37216U 10060A   23337.45676616 -.00002963  00000+0 -36589-3 0  9990
2 37216  97.8861 158.4944 0001263  79.6952 280.4403 14.82151685707359
ELEKTRO-L 1 (GOMS 2)    
1 37344U 11001A   23336.77393552 -.00000185  00000+0  00000+0 0  9995
2 37344   7.5560  63.3011 0004958  17.9632 357.1556  1.00152616 47199
RESOURCESAT-2           
1 37387U 11015A   23337.45323293  .00000415  00000+0  20867-3 0  9990
2 37387  98.6043  43.4439 0003681 338.1769  21.9252 14.21683326655038
YOUTHSAT                
1 37388U 11015B   23337.04058354  .00000412  00000+0  19426-3 0  9995
2 37388  98.2977 342.3598 0014615 180.9739 245.1888 14.24723114656104
APRIZESAT 6             
1 37793U 11044F   23337.16508615  .00001500  00000+0  23355-3 0  9995
2 37793  98.3261 210.4895 0046003 161.6010 317.8020 14.73856361660598
JUGNU                   
1 37839U 11058B   23333.02782875  .00000649  00000+0  20143-3 0  9999
2 37839  19.9597 202.7353 0018823 236.8731 267.5001 14.13065796627239
SRMSAT                  
1 37841U 11058D   23337.11345083  .00000600  00000+0  18403-3 0  9995
2 37841  19.9720 268.6162 0011994  88.7419  26.6450 14.10995123626917
SUOMI NPP               
1 37849U 11061A   23337.48381223  .00000259  00000+0  14361-3 0  9992
2 37849  98.7216 273.4257 0001564  93.0358  21.1528 14.19561048626956
M-CUBED & EXP-1 PRIME   
1 37855U 11061F   23336.71882195  .00045836  00000+0  10258-2 0  9998
2 37855 101.6964  35.2677 0093804 240.1478 119.0404 15.38737551662364
YAOGAN 12               
1 37875U 11066B   23337.44791226  .00012374  00000+0  51322-3 0  9999
2 37875  97.2505  38.8999 0006127 299.0159  61.0464 15.23990362671462
ZIYUAN 3-1 (ZY 3-1)     
1 38046U 12001A   23337.43138716  .00013079  00000+0  49875-3 0  9991
2 38046  97.2758  39.1804 0005541  84.4825 275.7046 15.26794347660878
BEIDOU-2 M4             
1 38251U 12018B   23335.19018270 -.00000087  00000+0  00000+0 0  9999
2 38251  56.3730 335.2439 0016382 264.9390  94.8866  1.86232056 78646
ARIRANG-3 (KOMPSAT-3)   
1 38338U 12025B   23337.51830578  .00001414  00000+0  28930-3 0  9994
2 38338  98.2398 278.9337 0011265 129.4618 230.7581 14.62327623615993
HORYU-2                 
1 38340U 12025D   23336.50168458  .00005806  00000+0  77608-3 0  9991
2 38340  98.1675  67.8202 0009719 320.6306  39.4198 14.79875334621382
METOP-B                 
1 38771U 12049A   23337.46339382  .00000344  00000+0  17685-3 0  9998
2 38771  98.6573  33.8204 0000911 108.0914  22.3867 14.21519967581591
SJ-9A                   
1 38860U 12056A   23337.46037906  .00001999  00000+0  26068-3 0  9994
2 38860  97.5844 335.5507 0029624  64.7182 295.7096 14.81289543601395
COSMOS 2484             
1 39059U 13001C   23336.84096330  .00000057  00000+0  34222-3 0  9998
2 39059  82.5025  78.4976 0025738 255.2127 104.6101 12.42887047493350
SARAL                   
1 39086U 13009A   23337.50918496  .00000313  00000+0  13205-3 0  9999
2 39086  98.5456 160.3783 0002655 125.9357 234.2074 14.32307171562928
AAUSAT 3                
1 39087U 13009B   23336.50826681  .00003309  00000+0  11249-2 0  9996
2 39087  98.3712 167.2072 0012948 112.4165 247.8395 14.37188653563781
STRAND-1                
1 39090U 13009E   23336.52121790  .00001226  00000+0  43814-3 0  9991
2 39090  98.3804 165.2577 0009832 118.8976 241.3197 14.35801567563876
BRITE-AUSTRIA           
1 39091U 13009F   23337.09410589  .00000451  00000+0  17116-3 0  9997
2 39091  98.3838 165.0661 0011311 124.3063 235.9196 14.35620983563992
UNIBRITE                
1 39092U 13009G   23337.02396894  .00000453  00000+0  17224-3 0  9995
2 39092  98.3877 164.8739 0010262 120.1306 240.0898 14.35494227563937
AIST-2 (RS-43)          
1 39133U 13015D   23337.44456125  .00006122  00000+0  37903-3 0  9993
2 39133  64.8738  11.6981 0015754 224.9616 135.0232 15.10569948583623
BEESAT-3                
1 39135U 13015F   23337.46419277  .00394930  00000+0  18797-2 0  9990
2 39135  64.8414 118.2253 0010217 283.0737  76.9280 15.81507556588694
BEESAT-2                
1 39136U 13015G   23337.50921227  .00164296  00000+0  15431-2 0  9991
2 39136  64.8567 135.0120 0018157 262.3543  97.5544 15.66197547588397
GAOFEN-1                
1 39150U 13018A   23337.46266032  .00001798  00000+0  26472-3 0  9996
2 39150  98.0130  46.6846 0020481  11.9759 348.1933 14.76498312571539
NEE-01 PEGASO           
1 39151U 13018B   23337.30400082  .00004620  00000+0  56026-3 0  9990
2 39151  98.0219  88.0231 0014904 325.2063  34.8175 14.84014580572761
TURKSAT-3USAT           
1 39152U 13018C   23337.20220662  .00005991  00000+0  70357-3 0  9999
2 39152  97.8428  60.9006 0014116 289.8432  70.1261 14.85214455572954
CUBEBUG-1 (CAPITAN BETO)
1 39153U 13018D   23337.30214160  .00005133  00000+0  60235-3 0  9999
2 39153  98.0554  95.0444 0014433 317.7881  42.2222 14.85329881572962
PROBA-V                 
1 39159U 13021A   23337.50709277  .00000206  00000+0  10931-3 0  9993
2 39159  98.3124 349.9644 0003661 344.1694  15.9370 14.23184003549281
ESTCUBE 1               
1 39161U 13021C   23337.16986998  .00003301  00000+0  49533-3 0  9994
2 39161  97.8545  44.5698 0010028 140.3833 219.8111 14.75196334568071
ARIRANG-5 (KOMPSAT-5)   
1 39227U 13042A   23337.50477925  .00003737  00000+0  27096-3 0  9996
2 39227  97.6169 161.1648 0002905  81.9832 278.1724 15.04537445564584
GONETS-M 5              
1 39249U 13048A   23336.86600802  .00000045  00000+0  25365-3 0  9992
2 39249  82.4828 201.4441 0017099  74.6198 285.6769 12.42884581463681
GONETS-M 7              
1 39251U 13048C   23337.15748297  .00000042  00000+0  23053-3 0  9998
2 39251  82.4897 203.6771 0017774  74.3817 285.9223 12.42892819463866
FENGYUN 3C              
1 39260U 13052A   23337.53863566  .00000224  00000+0  13386-3 0  9992
2 39260  98.4269 342.6268 0011277 168.8160 191.3268 14.16115253527495
CASSIOPE                
1 39265U 13055A   23336.89887789  .00030629  00000+0  69712-3 0  9997
2 39265  80.9589  53.6714 0540223 155.3937 207.4113 14.59389516529512
APRIZESAT 7             
1 39416U 13066A   23336.86117691  .00003441  00000+0  39070-3 0  9998
2 39416  97.6449 298.1497 0040543  41.6525 318.7767 14.86340538543219
ZACUBE-1 (TSHEPISOSAT)  
1 39417U 13066B   23336.87281174  .00006603  00000+0  72879-3 0  9995
2 39417  97.7099 293.0029 0055002  91.8801 268.8716 14.86666067542246
APRIZESAT 8             
1 39425U 13066K   23336.87120128  .00002230  00000+0  27282-3 0  9995
2 39425  97.7037 290.9408 0051601  92.7755 267.9367 14.83245795541983
CINEMA-3 (KHUSAT-2)     
1 39426U 13066L   23337.02417495  .00004088  00000+0  60530-3 0  9996
2 39426  97.8364 260.7843 0098704 325.8935  33.5956 14.72398123537989
TRITON-1                
1 39427U 13066M   23337.47992216  .00006096  00000+0  89021-3 0  9992
2 39427  97.8396 257.0930 0105856 355.6331   4.3943 14.72299323537444
DELFI-N3XT              
1 39428U 13066N   23336.77749718  .00010950  00000+0  14942-2 0  9995
2 39428  97.8367 255.8574 0107308   7.8248 352.4604 14.74837900537149
GOMX-1                  
1 39430U 13066Q   23337.47934294  .00003495  00000+0  59808-3 0  9998
2 39430  97.7559 218.6347 0143516 156.7415 204.0370 14.62838084534274
BRITE-PL1 (LEM)         
1 39431U 13066R   23336.99139487  .00000965  00000+0  21054-3 0  9997
2 39431  97.6829 147.6616 0198981  14.0927 346.5708 14.48385278529765
ICUBE-1                 
1 39432U 13066S   23336.84106058  .00010739  00000+0  90661-3 0  9990
2 39432  97.4999 320.6211 0025097 275.9331  83.9032 14.98045381544368
HUMSAT-D                
1 39433U 13066T   23337.42431832  .00011353  00000+0  84237-3 0  9992
2 39433  97.4800 329.7049 0019522 233.2058 126.7377 15.03071293546322
VELOX-PII               
1 39438U 13066Y   23336.81664100  .00005258  00000+0  63866-3 0  9997
2 39438  97.7655 284.7952 0065521 155.9074 204.5229 14.82395342539917
FIRST-MOVE              
1 39439U 13066Z   23336.83151812  .00016424  00000+0  15173-2 0  9995
2 39439  97.7018 298.1736 0054760  77.0388 283.6939 14.93513162541367
CUBEBUG-2 (LO-74)       
1 39440U 13066AA  23336.83899711  .00005351  00000+0  66613-3 0  9997
2 39440  97.7928 280.4030 0072271 196.9351 162.9449 14.81055175539104
NEE-02 KRYSAOR          
1 39441U 13066AB  23336.79344275  .00004341  00000+0  57280-3 0  9991
2 39441  97.8030 276.8460 0075381 216.2471 143.3620 14.78586678538757
FUNCUBE-1 (AO-73)       
1 39444U 13066AE  23336.89092715  .00007674  00000+0  80398-3 0  9992
2 39444  97.6955 295.7569 0053004  75.9105 284.7996 14.88800986540724
HINCUBE                 
1 39445U 13066AF  23336.89430389  .00008383  00000+0  88415-3 0  9992
2 39445  97.6968 295.4827 0053261  78.6170 282.1023 14.88489596540655
UWE-3                   
1 39446U 13066AG  23336.79905040  .00005951  00000+0  70045-3 0  9991
2 39446  97.7582 286.4494 0064358 145.8366 214.7016 14.83688817539419
COSMOS 2488             
1 39483U 13076A   23337.11004789  .00000028  00000+0  13356-3 0  9992
2 39483  82.4868  26.4375 0018179 316.9514  43.0143 12.42875683450917
